2025-292J               
1 67001U 25292J   26008.21183624  .00006787  00000+0  48520-3 0  9996
2 67001  97.6528  85.5089 0015885 174.8112 185.3282 15.04691378  4376
ZK-1A R/B               
1 67002U 25292K   26008.23155767  .00178555  11171-4  72764-3 0  9992
2 67002  97.7161  88.2985 0189183 267.8171  90.1415 15.63907211  4526
STARLINK-35660          
1 67003U 25293A   26008.05639093  .00083946  00000+0  13509-2 0  9997
2 67003  69.9994 249.4115 0003533 269.2756  90.8026 15.52559889  5750
STARLINK-35913          
1 67004U 25293B   26008.05604810  .00064809  00000+0  10463-2 0  9990
2 67004  69.9999 249.4109 0003419 267.7452  92.3344 15.52551959  5758
STARLINK-36148          
1 67005U 25293C   26008.44194352  .00105822  00000+0  16987-2 0  9997
2 67005  69.9998 248.3496 0002913 269.8017  90.2836 15.52541892  5818
STARLINK-36156          
1 67006U 25293D   26008.37716874  .00098633  00000+0  15835-2 0  9991
2 67006  70.0014 248.5244 0003284 270.1729  89.9081 15.52565298  5803
STARLINK-36123          
1 67007U 25293E   26008.50002314  .00000628  00000+0  12932-4 0  9998
2 67007  69.9999 248.1897 0002855 269.0783  55.5449 15.52502631  4452
STARLINK-36163          
1 67008U 25293F   26008.33334490 -.00095281  00000+0 -15629-2 0  9998
2 67008  69.9997 248.6418 0003348 271.2497 205.8860 15.52548554  4428
STARLINK-36118          
1 67009U 25293G   26008.37648301  .00088579  00000+0  14249-2 0  9999
2 67009  69.9996 248.5229 0003338 267.4089  92.6716 15.52550530  5802
STARLINK-36189          
1 67010U 25293H   26008.33334490 -.00108591  00000+0 -17842-2 0  9999
2 67010  69.9997 248.6348 0003376 273.3713 209.5142 15.52554239  4429
STARLINK-36167          
1 67011U 25293J   26008.33334490 -.00102085  00000+0 -16761-2 0  9991
2 67011  69.9995 248.6370 0003361 269.3162 211.6550 15.52550215  4360
STARLINK-36175          
1 67012U 25293K   26008.33334490 -.00113225  00000+0 -18615-2 0  9990
2 67012  69.9996 248.6321 0003380 272.0842 212.7206 15.52555837  4360
